CTC2_L_00429001-01
1 10000U 26230OW  26075.70046296  .00000000  00000+0  00000-0 0  9997
2 10000  85.0000   0.0000 0000000   0.0000   0.0000 12.53473438    17
CTC2_L_00429001-02
1 10001U 25898FW  26075.70046296  .00000000  00000+0  00000-0 0  9997
2 10001  85.0000   0.0000 0000000   0.0000  90.0000 12.53473438    17
CTC2_L_00429001-03
1 10002U 23972KS  26075.70046296  .00000000  00000+0  00000-0 0  9999
2 10002  85.0000   0.0000 0000000   0.0000 180.0000 12.53473438    18
CTC2_L_00429001-04
1 10003U 23436WP  26075.70046296  .00000000  00000+0  00000-0 0  9995
2 10003  85.0000   0.0000 0000000   0.0000 270.0000 12.53473438    19
CTC2_L_00429002-01
1 10004U 22895BQ  26075.70046296  .00000000  00000+0  00000-0 0  9994
2 10004  85.0000  12.0000 0000000   0.0000  12.0000 12.53473438    17
CTC2_L_00429002-02
1 10005U 22336VK  26075.70046296  .00000000  00000+0  00000-0 0  9995
2 10005  85.0000  12.0000 0000000   0.0000 102.0000 12.53473438    18
CTC2_L_00429002-03
1 10006U 25850JI  26075.70046296  .00000000  00000+0  00000-0 0  9990
2 10006  85.0000  12.0000 0000000   0.0000 192.0000 12.53473438    18
CTC2_L_00429002-04
1 10007U 26319PT  26075.70046296  .00000000  00000+0  00000-0 0  9992
2 10007  85.0000  12.0000 0000000   0.0000 282.0000 12.53473438    19
CTC2_L_00429003-01
1 10008U 24529XI  26075.70046296  .00000000  00000+0  00000-0 0  9994
2 10008  85.0000  24.0000 0000000   0.0000  24.0000 12.53473438    17
CTC2_L_00429003-02
1 10009U 24969VA  26075.70046296  .00000000  00000+0  00000-0 0  9993
2 10009  85.0000  24.0000 0000000   0.0000 114.0000 12.53473438    18
CTC2_L_00429003-03
1 10010U 23967RS  26075.70046296  .00000000  00000+0  00000-0 0  9992
2 10010  85.0000  24.0000 0000000   0.0000 204.0000 12.53473438    10
CTC2_L_00429003-04
1 10011U 25894WC  26075.70046296  .00000000  00000+0  00000-0 0  9994
2 10011  85.0000  24.0000 0000000   0.0000 294.0000 12.53473438    10
CTC2_L_00429004-01
1 10012U 22236TY  26075.70046296  .00000000  00000+0  00000-0 0  9992
2 10012  85.0000  36.0000 0000000   0.0000  36.0000 12.53473438    18
CTC2_L_00429004-02
1 10013U 26521FP  26075.70046296  .00000000  00000+0  00000-0 0  9994
2 10013  85.0000  36.0000 0000000   0.0000 126.0000 12.53473438    19
CTC2_L_00429004-03
1 10014U 23521FE  26075.70046296  .00000000  00000+0  00000-0 0  9992
2 10014  85.0000  36.0000 0000000   0.0000 216.0000 12.53473438    10
CTC2_L_00429004-04
1 10015U 23455VD  26075.70046296  .00000000  00000+0  00000-0 0  9999
2 10015  85.0000  36.0000 0000000   0.0000 306.0000 12.53473438    11
CTC2_L_00429005-01
1 10016U 24593NA  26075.70046296  .00000000  00000+0  00000-0 0  9994
2 10016  85.0000  48.0000 0000000   0.0000  48.0000 12.53473438    18
CTC2_L_00429005-02
1 10017U 22075UF  26075.70046296  .00000000  00000+0  00000-0 0  9998
2 10017  85.0000  48.0000 0000000   0.0000 138.0000 12.53473438    19
CTC2_L_00429005-03
1 10018U 22265FG  26075.70046296  .00000000  00000+0  00000-0 0  9990
2 10018  85.0000  48.0000 0000000   0.0000 228.0000 12.53473438    10
CTC2_L_00429005-04
1 10019U 25791GH  26075.70046296  .00000000  00000+0  00000-0 0  9998
2 10019  85.0000  48.0000 0000000   0.0000 318.0000 12.53473438    11
CTC2_L_00429006-01
1 10020U 25107AP  26075.70046296  .00000000  00000+0  00000-0 0  9991
2 10020  85.0000  60.0000 0000000   0.0000  60.0000 12.53473438    11
CTC2_L_00429006-02
1 10021U 24673JV  26075.70046296  .00000000  00000+0  00000-0 0  9999
2 10021  85.0000  60.0000 0000000   0.0000 150.0000 12.53473438    12
CTC2_L_00429006-03
1 10022U 22014RZ  26075.70046296  .00000000  00000+0  00000-0 0  9997
2 10022  85.0000  60.0000 0000000   0.0000 240.0000 12.53473438    13
CTC2_L_00429006-04
1 10023U 23313TA  26075.70046296  .00000000  00000+0  00000-0 0  9991
2 10023  85.0000  60.0000 0000000   0.0000 330.0000 12.53473438    14
CTC2_L_00429007-01
1 10024U 25487FE  26075.70046296  .00000000  00000+0  00000-0 0  9996
2 10024  85.0000  72.0000 0000000   0.0000  72.0000 12.53473438    11
CTC2_L_00429007-02
1 10025U 22517UQ  26075.70046296  .00000000  00000+0  00000-0 0  9998
2 10025  85.0000  72.0000 0000000   0.0000 162.0000 12.53473438    12
CTC2_L_00429007-03
1 10026U 26283XL  26075.70046296  .00000000  00000+0  00000-0 0  9993
2 10026  85.0000  72.0000 0000000   0.0000 252.0000 12.53473438    13
CTC2_L_00429007-04
1 10027U 25863DV  26075.70046296  .00000000  00000+0  00000-0 0  9997
2 10027  85.0000  72.0000 0000000   0.0000 342.0000 12.53473438    14
CTC2_L_00429008-01
1 10028U 22927HN  26075.70046296  .00000000  00000+0  00000-0 0  9996
2 10028  85.0000  84.0000 0000000   0.0000  84.0000 12.53473438    11
CTC2_L_00429008-02
1 10029U 23672FZ  26075.70046296  .00000000  00000+0  00000-0 0  9995
2 10029  85.0000  84.0000 0000000   0.0000 174.0000 12.53473438    12
CTC2_L_00429008-03
1 10030U 22633YF  26075.70046296  .00000000  00000+0  00000-0 0  9993
2 10030  85.0000  84.0000 0000000   0.0000 264.0000 12.53473438    14
CTC2_L_00429008-04
1 10031U 24409KU  26075.70046296  .00000000  00000+0  00000-0 0  9997
2 10031  85.0000  84.0000 0000000   0.0000 354.0000 12.53473438    15
CTC2_L_00429009-01
1 10032U 23979RM  26075.70046296  .00000000  00000+0  00000-0 0  9999
2 10032  85.0000  96.0000 0000000   0.0000  96.0000 12.53473438    12
CTC2_L_00429009-02
1 10033U 26162EU  26075.70046296  .00000000  00000+0  00000-0 0  9997
2 10033  85.0000  96.0000 0000000   0.0000 186.0000 12.53473438    13
CTC2_L_00429009-03
1 10034U 23357SZ  26075.70046296  .00000000  00000+0  00000-0 0  9991
2 10034  85.0000  96.0000 0000000   0.0000 276.0000 12.53473438    14
CTC2_L_00429009-04
1 10035U 23448OB  26075.70046296  .00000000  00000+0  00000-0 0  9993
2 10035  85.0000  96.0000 0000000   0.0000   6.0000 12.53473438    16
CTC2_L_00429010-01
1 10036U 26766F   26075.70046296  .00000000  00000+0  00000-0 0  9990
2 10036  85.0000 108.0000 0000000   0.0000 108.0000 12.53473438    14
CTC2_L_00429010-02
1 10037U 23340NA  26075.70046296  .00000000  00000+0  00000-0 0  9996
2 10037  85.0000 108.0000 0000000   0.0000 198.0000 12.53473438    14
CTC2_L_00429010-03
1 10038U 25222GN  26075.70046296  .00000000  00000+0  00000-0 0  9998
2 10038  85.0000 108.0000 0000000   0.0000 288.0000 12.53473438    15
CTC2_L_00429010-04
1 10039U 26261MK  26075.70046296  .00000000  00000+0  00000-0 0  9993
2 10039  85.0000 108.0000 0000000   0.0000  18.0000 12.53473438    17
CTC2_L_00429011-01
1 10040U 26539WO  26075.70046296  .00000000  00000+0  00000-0 0  9993
2 10040  85.0000 120.0000 0000000   0.0000 120.0000 12.53473438    17
CTC2_L_00429011-02
1 10041U 26974EJ  26075.70046296  .00000000  00000+0  00000-0 0  9997
2 10041  85.0000 120.0000 0000000   0.0000 210.0000 12.53473438    18
CTC2_L_00429011-03
1 10042U 24209OO  26075.70046296  .00000000  00000+0  00000-0 0  9997
2 10042  85.0000 120.0000 0000000   0.0000 300.0000 12.53473438    19
CTC2_L_00429011-04
1 10043U 23304NY  26075.70046296  .00000000  00000+0  00000-0 0  9993
2 10043  85.0000 120.0000 0000000   0.0000  30.0000 12.53473438    10
CTC2_L_00429012-01
1 10044U 25756X   26075.70046296  .00000000  00000+0  00000-0 0  9997
2 10044  85.0000 132.0000 0000000   0.0000 132.0000 12.53473438    17
CTC2_L_00429012-02
1 10045U 22954DV  26075.70046296  .00000000  00000+0  00000-0 0  9995
2 10045  85.0000 132.0000 0000000   0.0000 222.0000 12.53473438    18
CTC2_L_00429012-03
1 10046U 22709LH  26075.70046296  .00000000  00000+0  00000-0 0  9994
2 10046  85.0000 132.0000 0000000   0.0000 312.0000 12.53473438    19
CTC2_L_00429012-04
1 10047U 23952F   26075.70046296  .00000000  00000+0  00000-0 0  9996
2 10047  85.0000 132.0000 0000000   0.0000  42.0000 12.53473438    10
CTC2_L_00429013-01
1 10048U 23177FZ  26075.70046296  .00000000  00000+0  00000-0 0  9996
2 10048  85.0000 144.0000 0000000   0.0000 144.0000 12.53473438    17
CTC2_L_00429013-02
1 10049U 25934TX  26075.70046296  .00000000  00000+0  00000-0 0  9990
2 10049  85.0000 144.0000 0000000   0.0000 234.0000 12.53473438    18
CTC2_L_00429013-03
1 10050U 26253AX  26075.70046296  .00000000  00000+0  00000-0 0  9997
2 10050  85.0000 144.0000 0000000   0.0000 324.0000 12.53473438    10
CTC2_L_00429013-04
1 10051U 24144FH  26075.70046296  .00000000  00000+0  00000-0 0  9995
2 10051  85.0000 144.0000 0000000   0.0000  54.0000 12.53473438    11
CTC2_L_00429014-01
1 10052U 23228LE  26075.70046296  .00000000  00000+0  00000-0 0  9998
2 10052  85.0000 156.0000 0000000   0.0000 156.0000 12.53473438    18
CTC2_L_00429014-02
1 10053U 22159DW  26075.70046296  .00000000  00000+0  00000-0 0  9991
2 10053  85.0000 156.0000 0000000   0.0000 246.0000 12.53473438    19
CTC2_L_00429014-03
1 10054U 22009YU  26075.70046296  .00000000  00000+0  00000-0 0  9996
2 10054  85.0000 156.0000 0000000   0.0000 336.0000 12.53473438    10
CTC2_L_00429014-04
1 10055U 23031TW  26075.70046296  .00000000  00000+0  00000-0 0  9993
2 10055  85.0000 156.0000 0000000   0.0000  66.0000 12.53473438    11
CTC2_L_00429015-01
1 10056U 22689NK  26075.70046296  .00000000  00000+0  00000-0 0  9992
2 10056  85.0000 168.0000 0000000   0.0000 168.0000 12.53473438    18
CTC2_L_00429015-02
1 10057U 23148KL  26075.70046296  .00000000  00000+0  00000-0 0  9994
2 10057  85.0000 168.0000 0000000   0.0000 258.0000 12.53473438    19
CTC2_L_00429015-03
1 10058U 23098YH  26075.70046296  .00000000  00000+0  00000-0 0  9999
2 10058  85.0000 168.0000 0000000   0.0000 348.0000 12.53473438    10
CTC2_L_00429015-04
1 10059U 24244TA  26075.70046296  .00000000  00000+0  00000-0 0  9994
2 10059  85.0000 168.0000 0000000   0.0000  78.0000 12.53473438    11
CTC2_L_00429016-01
1 10060U 25368AN  26075.70046296  .00000000  00000+0  00000-0 0  9994
2 10060  85.0000 180.0000 0000000   0.0000 180.0000 12.53473438    11
CTC2_L_00429016-02
1 10061U 24415HG  26075.70046296  .00000000  00000+0  00000-0 0  9997
2 10061  85.0000 180.0000 0000000   0.0000 270.0000 12.53473438    12
